start=new Date('2022-12-15T00:00:00.000Z').valueOf();
sats=[{"ARG_OF_PERICENTER":"41.1164","MEAN_MOTION":"15.08838623","BSTAR":"0.00008724500000","REV_AT_EPOCH":"3761","OBJECT_ID":"2022-045AN","LAUNCH_DATE":"2022-04-29","OBJECT_NAME":"STARLINK-3817","MEAN_ANOMALY":"319.0024","DECAY_DATE":null,"COUNTRY_CODE":"US","SEMIMAJOR_AXIS":"6917.885","GP_ID":"220366555","PERIAPSIS":"537.947","INCLINATION":"53.2184","MEAN_MOTION_DDOT":"0.0000000000000","PERIOD":"95.438","NORAD_CAT_ID":"52367","OBJECT_TYPE":"PAYLOAD","RA_OF_ASC_NODE":"91.2801","CENTER_NAME":"EARTH","SITE":"AFETR","RCS_SIZE":"LARGE","MEAN_MOTION_DOT":"0.00001100","ECCENTRICITY":"0.00026060","TIME_SYSTEM":"UTC","CLASSIFICATION_TYPE":"U","REF_FRAME":"TEME","EPOCH":"2022-12-14T14:07:58.420704","EPHEMERIS_TYPE":"0","MEAN_ELEMENT_THEORY":"SGP4","APOAPSIS":"541.552","TLE_LINE1":"1 52367U 22045AN  22348.58887061  .00001100  00000-0  87245-4 0  9990","TLE_LINE2":"2 52367  53.2184  91.2801 0002606  41.1164 319.0024 15.08838623 37610","FILE":"3698874","ELEMENT_SET_NO":"999"},{"SEMIMAJOR_AXIS":"6917.889","COUNTRY_CODE":"US","DECAY_DATE":null,"GP_ID":"220414344","INCLINATION":"53.2181","PERIAPSIS":"537.575","BSTAR":"0.00000629010000","MEAN_MOTION":"15.08837024","ARG_OF_PERICENTER":"39.8873","REV_AT_EPOCH":"3763","OBJECT_ID":"2022-045AP","LAUNCH_DATE":"2022-04-29","OBJECT_NAME":"STARLINK-3834","MEAN_ANOMALY":"320.2350","OBJECT_TYPE":"PAYLOAD","SITE":"AFETR","CENTER_NAME":"EARTH","RA_OF_ASC_NODE":"90.4728","NORAD_CAT_ID":"52368","MEAN_MOTION_DDOT":"0.0000000000000","PERIOD":"95.438","EPHEMERIS_TYPE":"0","EPOCH":"2022-12-14T18:27:38.448864","MEAN_MOTION_DOT":"-0.00000189","RCS_SIZE":"LARGE","ECCENTRICITY":"0.00031500","TIME_SYSTEM":"UTC","REF_FRAME":"TEME","CLASSIFICATION_TYPE":"U","ELEMENT_SET_NO":"999","MEAN_ELEMENT_THEORY":"SGP4","APOAPSIS":"541.934","TLE_LINE1":"1 52368U 22045AP  22348.76919501 -.00000189  00000-0  62901-5 0  9996","TLE_LINE2":"2 52368  53.2181  90.4728 0003150  39.8873 320.2350 15.08837024 37635","FILE":"3699722"},{"PERIOD":"95.438","MEAN_MOTION_DDOT":"0.0000000000000","NORAD_CAT_ID":"52369","OBJECT_TYPE":"PAYLOAD","CENTER_NAME":"EARTH","RA_OF_ASC_NODE":"91.3052","SITE":"AFETR","MEAN_MOTION":"15.08838470","ARG_OF_PERICENTER":"24.4585","BSTAR":"0.00009952700000","REV_AT_EPOCH":"3761","LAUNCH_DATE":"2022-04-29","OBJECT_ID":"2022-045AQ","MEAN_ANOMALY":"335.6529","OBJECT_NAME":"STARLINK-3841","COUNTRY_CODE":"US","DECAY_DATE":null,"SEMIMAJOR_AXIS":"6917.885","GP_ID":"220368051","INCLINATION":"53.2177","PERIAPSIS":"537.963","APOAPSIS":"541.537","MEAN_ELEMENT_THEORY":"SGP4","TLE_LINE1":"1 52369U 22045AQ  22348.58518970  .00001296  00000-0  99527-4 0  9994","TLE_LINE2":"2 52369  53.2177  91.3052 0002583  24.4585 335.6529 15.08838470 37612","FILE":"3698874","ELEMENT_SET_NO":"999","RCS_SIZE":"LARGE","MEAN_MOTION_DOT":"0.00001296","ECCENTRICITY":"0.00025830","TIME_SYSTEM":"UTC","CLASSIFICATION_TYPE":"U","REF_FRAME":"TEME","EPOCH":"2022-12-14T14:02:40.390080","EPHEMERIS_TYPE":"0"},{"MEAN_ELEMENT_THEORY":"SGP4","APOAPSIS":"541.523","TLE_LINE1":"1 52370U 22045AR  22348.97527222  .00000398  00000-0  43129-4 0  9998","FILE":"3699722","TLE_LINE2":"2 52370  53.2168  89.5586 0002576  40.0324 320.0858 15.08841592 37670","ELEMENT_SET_NO":"999","MEAN_MOTION_DOT":"0.00000398","RCS_SIZE":"LARGE","ECCENTRICITY":"0.00025760","TIME_SYSTEM":"UTC","REF_FRAME":"TEME","CLASSIFICATION_TYPE":"U","EPHEMERIS_TYPE":"0","EPOCH":"2022-12-14T23:24:23.519808","NORAD_CAT_ID":"52370","MEAN_MOTION_DDOT":"0.0000000000000","PERIOD":"95.437","OBJECT_TYPE":"PAYLOAD","SITE":"AFETR","RA_OF_ASC_NODE":"89.5586","CENTER_NAME":"EARTH","BSTAR":"0.00004312900000","MEAN_MOTION":"15.08841592","ARG_OF_PERICENTER":"40.0324","REV_AT_EPOCH":"3767","LAUNCH_DATE":"2022-04-29","OBJECT_ID":"2022-045AR","MEAN_ANOMALY":"320.0858","OBJECT_NAME":"STARLINK-3827","SEMIMAJOR_AXIS":"6917.876","DECAY_DATE":null,"COUNTRY_CODE":"US","GP_ID":"220414842","INCLINATION":"53.2168","PERIAPSIS":"537.958"},{"GP_ID":"220414347","DECAY_DATE":null,"COUNTRY_CODE":"US","SEMIMAJOR_AXIS":"6917.910","INCLINATION":"53.2178","PERIAPSIS":"538.000","REV_AT_EPOCH":"3765","ARG_OF_PERICENTER":"43.1661","MEAN_MOTION":"15.08830405","BSTAR":"-0.00004593600000","MEAN_ANOMALY":"316.9532","OBJECT_NAME":"STARLINK-3798","OBJECT_ID":"2022-045AS","LAUNCH_DATE":"2022-04-29","RA_OF_ASC_NODE":"89.8660","CENTER_NAME":"EARTH","SITE":"AFETR","OBJECT_TYPE":"PAYLOAD","PERIOD":"95.438","MEAN_MOTION_DDOT":"0.0000000000000","NORAD_CAT_ID":"52371","EPOCH":"2022-12-14T21:43:42.900096","EPHEMERIS_TYPE":"0","ECCENTRICITY":"0.00025650","RCS_SIZE":"LARGE","MEAN_MOTION_DOT":"-0.00001019","CLASSIFICATION_TYPE":"U","REF_FRAME":"TEME","TIME_SYSTEM":"UTC","ELEMENT_SET_NO":"999","TLE_LINE1":"1 52371U 22045AS  22348.90535764 -.00001019  00000-0 -45936-4 0  9993","APOAPSIS":"541.549","MEAN_ELEMENT_THEORY":"SGP4","TLE_LINE2":"2 52371  53.2178  89.8660 0002565  43.1661 316.9532 15.08830405 37656","FILE":"3699722"},{"REF_FRAME":"TEME","CLASSIFICATION_TYPE":"U","TIME_SYSTEM":"UTC","ECCENTRICITY":"0.00026130","MEAN_MOTION_DOT":"-0.00000050","RCS_SIZE":"LARGE","EPHEMERIS_TYPE":"0","EPOCH":"2022-12-14T18:22:20.083872","FILE":"3699647","TLE_LINE2":"2 52372  53.2190  90.4945 0002613  24.6081 335.5036 15.08841890 37633","TLE_LINE1":"1 52372U 22045AT  22348.76551023 -.00000050  00000-0  14983-4 0  9995","APOAPSIS":"541.547","MEAN_ELEMENT_THEORY":"SGP4","ELEMENT_SET_NO":"999","MEAN_ANOMALY":"335.5036","OBJECT_NAME":"STARLINK-3796","LAUNCH_DATE":"2022-04-29","OBJECT_ID":"2022-045AT","REV_AT_EPOCH":"3763","BSTAR":"0.00001498300000","MEAN_MOTION":"15.08841890","ARG_OF_PERICENTER":"24.6081","INCLINATION":"53.2190","PERIAPSIS":"537.932","GP_ID":"220410559","SEMIMAJOR_AXIS":"6917.875","DECAY_DATE":null,"COUNTRY_CODE":"US","NORAD_CAT_ID":"52372","PERIOD":"95.437","MEAN_MOTION_DDOT":"0.0000000000000","SITE":"AFETR","CENTER_NAME":"EARTH","RA_OF_ASC_NODE":"90.4945","OBJECT_TYPE":"PAYLOAD"},{"REF_FRAME":"TEME","CLASSIFICATION_TYPE":"U","TIME_SYSTEM":"UTC","ECCENTRICITY":"0.00021750","MEAN_MOTION_DOT":"-0.00000155","RCS_SIZE":"LARGE","EPHEMERIS_TYPE":"0","EPOCH":"2022-12-14T18:06:26.637408","TLE_LINE2":"2 52373  53.2171  90.5386 0002175  42.9393 317.1768 15.08838353 37644","FILE":"3699722","TLE_LINE1":"1 52373U 22045AU  22348.75447497 -.00000155  00000-0  84006-5 0  9994","MEAN_ELEMENT_THEORY":"SGP4","APOAPSIS":"541.255","ELEMENT_SET_NO":"999","MEAN_ANOMALY":"317.1768","OBJECT_NAME":"STARLINK-3550","LAUNCH_DATE":"2022-04-29","OBJECT_ID":"2022-045AU","REV_AT_EPOCH":"3764","BSTAR":"0.00000840060000","ARG_OF_PERICENTER":"42.9393","MEAN_MOTION":"15.08838353","PERIAPSIS":"538.246","INCLINATION":"53.2171","GP_ID":"220414849","SEMIMAJOR_AXIS":"6917.885","COUNTRY_CODE":"US","DECAY_DATE":null,"NORAD_CAT_ID":"52373","MEAN_MOTION_DDOT":"0.0000000000000","PERIOD":"95.438","SITE":"AFETR","RA_OF_ASC_NODE":"90.5386","CENTER_NAME":"EARTH","OBJECT_TYPE":"PAYLOAD"},{"APOAPSIS":"541.293","MEAN_ELEMENT_THEORY":"SGP4","TLE_LINE1":"1 52374U 22045AV  22348.62566928  .00001406  00000-0  10644-3 0  9996","FILE":"3699647","TLE_LINE2":"2 52374  53.2186  91.1166 0002254  41.9804 318.1361 15.08843774 37629","ELEMENT_SET_NO":"999","MEAN_MOTION_DOT":"0.00001406","RCS_SIZE":"LARGE","ECCENTRICITY":"0.00022540","TIME_SYSTEM":"UTC","REF_FRAME":"TEME","CLASSIFICATION_TYPE":"U","EPHEMERIS_TYPE":"0","EPOCH":"2022-12-14T15:00:57.825792","NORAD_CAT_ID":"52374","MEAN_MOTION_DDOT":"0.0000000000000","PERIOD":"95.437","OBJECT_TYPE":"PAYLOAD","SITE":"AFETR","CENTER_NAME":"EARTH","RA_OF_ASC_NODE":"91.1166","BSTAR":"0.00010644000000","ARG_OF_PERICENTER":"41.9804","MEAN_MOTION":"15.08843774","REV_AT_EPOCH":"3762","LAUNCH_DATE":"2022-04-29","OBJECT_ID":"2022-045AV","MEAN_ANOMALY":"318.1361","OBJECT_NAME":"STARLINK-3762","SEMIMAJOR_AXIS":"6917.869","DECAY_DATE":null,"COUNTRY_CODE":"US","GP_ID":"220409564","INCLINATION":"53.2186","PERIAPSIS":"538.175"},{"ECCENTRICITY":"0.00020550","RCS_SIZE":"LARGE","MEAN_MOTION_DOT":"0.00000085","CLASSIFICATION_TYPE":"U","REF_FRAME":"TEME","TIME_SYSTEM":"UTC","EPOCH":"2022-12-14T13:30:52.757568","EPHEMERIS_TYPE":"0","TLE_LINE1":"1 52375U 22045AW  22348.56311062  .00000085  00000-0  23452-4 0  9991","APOAPSIS":"541.167","MEAN_ELEMENT_THEORY":"SGP4","TLE_LINE2":"2 52375  53.2194  91.4105 0002055  38.1209 321.9929 15.08839912 37611","FILE":"3698874","ELEMENT_SET_NO":"999","REV_AT_EPOCH":"3761","ARG_OF_PERICENTER":"38.1209","MEAN_MOTION":"15.08839912","BSTAR":"0.00002345200000","MEAN_ANOMALY":"321.9929","OBJECT_NAME":"STARLINK-3785","OBJECT_ID":"2022-045AW","LAUNCH_DATE":"2022-04-29","GP_ID":"220366556","COUNTRY_CODE":"US","DECAY_DATE":null,"SEMIMAJOR_AXIS":"6917.881","PERIAPSIS":"538.324","INCLINATION":"53.2194","MEAN_MOTION_DDOT":"0.0000000000000","PERIOD":"95.438","NORAD_CAT_ID":"52375","RA_OF_ASC_NODE":"91.4105","CENTER_NAME":"EARTH","SITE":"AFETR","OBJECT_TYPE":"PAYLOAD"},{"CLASSIFICATION_TYPE":"U","REF_FRAME":"TEME","TIME_SYSTEM":"UTC","ECCENTRICITY":"0.00024310","RCS_SIZE":"LARGE","MEAN_MOTION_DOT":"0.00001231","EPOCH":"2022-12-14T19:36:31.882752","EPHEMERIS_TYPE":"0","TLE_LINE2":"2 52376  53.2182  90.2576 0002431  45.3255 314.7935 15.08839112 37650","FILE":"3699772","TLE_LINE1":"1 52376U 22045AX  22348.81703568  .00001231  00000-0  95462-4 0  9990","MEAN_ELEMENT_THEORY":"SGP4","APOAPSIS":"541.430","ELEMENT_SET_NO":"999","OBJECT_NAME":"STARLINK-3767","MEAN_ANOMALY":"314.7935","OBJECT_ID":"2022-045AX","LAUNCH_DATE":"2022-04-29","REV_AT_EPOCH":"3765","MEAN_MOTION":"15.08839112","ARG_OF_PERICENTER":"45.3255","BSTAR":"0.00009546200000","INCLINATION":"53.2182","PERIAPSIS":"538.066","GP_ID":"220416007","DECAY_DATE":null,"COUNTRY_CODE":"US","SEMIMAJOR_AXIS":"6917.883","MEAN_MOTION_DDOT":"0.0000000000000","PERIOD":"95.438","NORAD_CAT_ID":"52376","CENTER_NAME":"EARTH","RA_OF_ASC_NODE":"90.2576","SITE":"AFETR","OBJECT_TYPE":"PAYLOAD"}];
